0 SL-12 R/B(AUX MOTOR)
1 37144U 10041H   13281.73957159  .00000004  00000-0  11621-3 0  7880
2 37144 065.0291 323.9419 5730960 147.8591 317.0338 04.24832940 47967
0 SL-12 R/B(AUX MOTOR)
1 37144U 10041H   13282.79058238 -.00000001  00000-0  10264-3 0  7898
2 37144 065.0297 323.5578 5730872 147.8128 124.4434 04.24833326 48005
0 SL-12 R/B(AUX MOTOR)
1 37144U 10041H   13283.88347292  .00000016  00000-0  11473-3 0  7900
2 37144 065.0305 323.1583 5730762 147.7645 355.9046 04.24833400 48056
0 SL-12 R/B(AUX MOTOR)
1 37144U 10041H   13285.72759816  .00000058  00000-0  13157-3 0  7912
2 37144 065.0315 322.4844 5730581 147.6828 296.3029 04.24833528 48139
0 SL-12 R/B(AUX MOTOR)
1 37144U 10041H   13287.79149737  .00000116  00000-0  20206-3 0  7925
2 37144 065.0325 321.7306 5730373 147.5907 212.8250 04.24833530 48212
0 SL-12 R/B(AUX MOTOR)
1 37144U 10041H   13289.52214395  .00000102  00000-0  19016-3 0  7934
2 37144 065.0333 321.0983 5730201 147.5134 339.6706 04.24833824 48295
0 SL-12 R/B(AUX MOTOR)
1 37144U 10041H   13290.70451573  .00000083  00000-0  19799-3 0  7944
2 37144 065.0338 320.6665 5730090 147.4604 347.9872 04.24834058 48341
0 SL-12 R/B(AUX MOTOR)
1 37144U 10041H   13292.59475722  .00000009  00000-0  12995-3 0  7955
2 37144 065.0345 319.9763 5729919 147.3757 358.9170 04.24834690 48429
0 SL-12 R/B(AUX MOTOR)
1 37144U 10041H   13294.47214962 -.00000069  00000-0  18571-4 0  7966
2 37144 065.0354 319.2905 5729739 147.2917 350.1979 04.24835444 48505
0 SL-12 R/B(AUX MOTOR)
1 37144U 10041H   13295.64614712 -.00000082  00000-0 -54155-5 0  7979
2 37144 065.0359 318.8619 5729617 147.2392 345.7109 04.24835771 48552
